STARLINK-2290
1 17994C 21024T   21326.16426683  .00001018  00000-0  68190-4 0  3264
2 17994  53.0525 152.9969 0001945  74.7217 316.3964 15.06389331    15
